[{"OBJECT_NAME":"GEESAT-3 07","OBJECT_ID":"2024-159G","EPOCH":"2026-03-09T22:01:38.218944","MEAN_MOTION":14.83815834,"ECCENTRICITY":0.00111185,"INCLINATION":49.9922,"RA_OF_ASC_NODE":183.3196,"ARG_OF_PERICENTER":11.1961,"MEAN_ANOMALY":348.9223,"EPHEMERIS_TYPE":0,"CLASSIFICATION_TYPE":"U","NORAD_CAT_ID":61017,"ELEMENT_SET_NO":999,"REV_AT_EPOCH":8140,"BSTAR":0.00040817534,"MEAN_MOTION_DOT":3.195e-5,"MEAN_MOTION_DDOT":0},{"OBJECT_NAME":"CLOUDSAT","OBJECT_ID":"2006-016A","EPOCH":"2026-03-09T23:36:20.904192","MEAN_MOTION":14.86172924,"ECCENTRICITY":0.00040939,"INCLINATION":98.4053,"RA_OF_ASC_NODE":100.731,"ARG_OF_PERICENTER":300.1653,"MEAN_ANOMALY":59.9155,"EPHEMERIS_TYPE":0,"CLASSIFICATION_TYPE":"U","NORAD_CAT_ID":29107,"ELEMENT_SET_NO":999,"REV_AT_EPOCH":5977,"BSTAR":0.00018027115,"MEAN_MOTION_DOT":1.521e-5,"MEAN_MOTION_DDOT":0}]
